     2              NAVIGATION DATA                         RINEX VERSION / TYPE
CCRINEXN V1.6.0 UX  CDDIS               30-AUG-23 06:26     PGM / RUN BY / DATE 
IGS BROADCAST EPHEMERIS FILE                                COMMENT             
    0.1583D-07  0.2235D-07 -0.1192D-06 -0.1192D-06          ION ALPHA           
    0.1126D+06  0.8192D+05 -0.1966D+06 -0.6554D+05          ION BETA            
    0.186264514923D-08 0.532907051820D-14   503808     2277 DELTA-UTC: A0,A1,T,W
    18                                                      LEAP SECONDS        
                                                            END OF HEADER       
18 23  8 30  6  0  0.0-0.400084070861D-03-0.129602995003D-10 0.000000000000D+00
    0.250000000000D+02 0.130750000000D+03 0.408731311014D-08-0.832170904996D+00
    0.675022602081D-05 0.366217445117D-02 0.745803117752D-05 0.515366536522D+04
    0.280800000000D+06 0.298023223877D-07 0.640947421781D+00-0.596046447754D-07
    0.974275484427D+00 0.245781250000D+03-0.312732916574D+01-0.799319009131D-08
    0.220009164265D-09 0.100000000000D+01 0.227700000000D+04 0.000000000000D+00
    0.200000000000D+01 0.000000000000D+00-0.838190317154D-08 0.250000000000D+02
    0.273628000000D+06 0.400000000000D+01 0.000000000000D+00 0.000000000000D+00
19 23  8 30  6  0  0.0 0.364542007446D-03 0.511590769747D-11 0.000000000000D+00
    0.610000000000D+02 0.301562500000D+02 0.399838083432D-08-0.300908739588D+01
    0.164285302162D-05 0.944019085728D-02 0.141784548760D-04 0.515365067291D+04
    0.280800000000D+06-0.931322574615D-07-0.317915016699D+00 0.121071934700D-06
    0.972280328955D+00 0.110593750000D+03 0.240089112136D+01-0.751174146561D-08
   -0.570023743777D-09 0.100000000000D+01 0.227700000000D+04 0.000000000000D+00
    0.200000000000D+01 0.000000000000D+00-0.153668224812D-07 0.610000000000D+02
    0.280266000000D+06 0.400000000000D+01 0.000000000000D+00 0.000000000000D+00
20 23  8 30  6  0  0.0 0.414551235735D-03-0.204636307899D-11 0.000000000000D+00
    0.340000000000D+02 0.953125000000D+01 0.523236080597D-08-0.123416786976D+00
    0.424683094025D-06 0.407155707944D-02-0.430271029472D-06 0.515360516167D+04
    0.280800000000D+06 0.465661287308D-07 0.149937945449D+01 0.121071934700D-06
    0.949530160748D+00 0.382125000000D+03-0.286198781872D+01-0.895037281895D-08
   -0.728601777760D-10 0.100000000000D+01 0.227700000000D+04 0.000000000000D+00
    0.200000000000D+01 0.000000000000D+00-0.838190317154D-08 0.340000000000D+02
    0.273618000000D+06 0.400000000000D+01 0.000000000000D+00 0.000000000000D+00
21 23  8 30  6  0  0.0 0.149870757014D-03-0.682121026330D-12 0.000000000000D+00
    0.390000000000D+02 0.140875000000D+03 0.448125809096D-08 0.118464374645D+01
    0.710971653462D-05 0.247567315819D-01 0.746920704842D-05 0.515358364868D+04
    0.280800000000D+06 0.623986124992D-06 0.535100962657D+00-0.279396772385D-07
    0.962046862965D+00 0.223843750000D+03-0.714070692939D+00-0.810390898891D-08
    0.101075638777D-09 0.100000000000D+01 0.227700000000D+04 0.000000000000D+00
    0.200000000000D+01 0.000000000000D+00-0.102445483208D-07 0.390000000000D+02
    0.278796000000D+06 0.400000000000D+01 0.000000000000D+00 0.000000000000D+00
22 23  8 30  6  0  0.0 0.131793320179D-03-0.750333128963D-11 0.000000000000D+00
    0.140000000000D+03-0.242500000000D+02 0.510306970619D-08 0.174595765122D+01
   -0.141374766827D-05 0.153682989767D-01 0.458769500256D-05 0.515360013199D+04
    0.280800000000D+06 0.312924385071D-06-0.138023350763D+01-0.968575477600D-07
    0.963020920635D+00 0.290875000000D+03-0.119329325105D+01-0.815891127997D-08
   -0.311084386485D-09 0.100000000000D+01 0.227700000000D+04 0.000000000000D+00
    0.280000000000D+01 0.000000000000D+00-0.111758708954D-07 0.140000000000D+03
    0.274902000000D+06 0.400000000000D+01 0.000000000000D+00 0.000000000000D+00
23 23  8 30  6  0  0.0 0.615403987467D-04 0.500222085975D-11 0.000000000000D+00
    0.830000000000D+02-0.334687500000D+02 0.438911139554D-08-0.184685676278D+01
   -0.162422657013D-05 0.357276026625D-02 0.774860382080D-06 0.515367438888D+04
    0.280800000000D+06-0.391155481338D-07 0.164106990375D+01-0.372529029846D-07
    0.974855481707D+00 0.372093750000D+03-0.310140608475D+01-0.837034865862D-08
   -0.967897459671D-10 0.100000000000D+01 0.227700000000D+04 0.000000000000D+00
    0.200000000000D+01 0.000000000000D+00-0.838190317154D-08 0.339000000000D+03
    0.273618000000D+06 0.400000000000D+01 0.000000000000D+00 0.000000000000D+00
24 23  8 30  6  0  0.0-0.304785557091D-03-0.111413100967D-10 0.000000000000D+00
    0.102000000000D+03 0.302812500000D+02 0.515735768179D-08-0.661786631304D+00
    0.185519456863D-05 0.143139907159D-01 0.103842467070D-04 0.515363956451D+04
    0.280800000000D+06 0.596046447754D-07-0.260941336655D+01 0.206753611565D-06
    0.934227673373D+00 0.169187500000D+03 0.914005569509D+00-0.846106672310D-08
    0.752888503685D-09 0.100000000000D+01 0.227700000000D+04 0.000000000000D+00
    0.200000000000D+01 0.000000000000D+00 0.232830643654D-08 0.102000000000D+03
    0.277248000000D+06 0.400000000000D+01 0.000000000000D+00 0.000000000000D+00
25 23  8 30  6  0  0.0 0.464999582619D-03 0.204636307899D-11 0.000000000000D+00
    0.840000000000D+02-0.196250000000D+02 0.543344061033D-08-0.254528996303D+01
   -0.113435089588D-05 0.111229604809D-01 0.407733023167D-05 0.515367629051D+04
    0.280800000000D+06 0.260770320892D-06-0.148519391384D+01-0.745058059692D-07
    0.951864375281D+00 0.294531250000D+03 0.105212373082D+01-0.842177937234D-08
   -0.642883921553D-11 0.100000000000D+01 0.227700000000D+04 0.000000000000D+00
    0.200000000000D+01 0.000000000000D+00 0.558793544769D-08 0.840000000000D+02
    0.273618000000D+06 0.400000000000D+01 0.000000000000D+00 0.000000000000D+00
27 23  8 30  6  0  0.0-0.308542512357D-04-0.648014975013D-11 0.000000000000D+00
    0.880000000000D+02 0.131875000000D+02 0.441446959466D-08 0.124136296608D+01
    0.869855284691D-06 0.115796899190D-01 0.124257057905D-04 0.515367170906D+04
    0.280800000000D+06-0.707805156708D-07-0.428686427573D+00 0.210478901863D-06
    0.966392377733D+00 0.145093750000D+03 0.741056869182D+00-0.797318925819D-08
   -0.673599486694D-09 0.100000000000D+01 0.227700000000D+04 0.000000000000D+00
    0.280000000000D+01 0.000000000000D+00 0.139698386192D-08 0.880000000000D+02
    0.273618000000D+06 0.400000000000D+01 0.000000000000D+00 0.000000000000D+00
28 23  8 30  6  0  0.0-0.336999073625D-05-0.432009983342D-11 0.000000000000D+00
    0.900000000000D+02 0.397812500000D+02 0.449661587353D-08-0.307017116870D+01
    0.173784792423D-05 0.654422561638D-03 0.104103237390D-04 0.515373590279D+04
    0.280800000000D+06-0.745058059692D-07-0.255333136185D+01-0.558793544769D-08
    0.961712245324D+00 0.177437500000D+03 0.160250185774D+01-0.792783022595D-08
    0.791104381244D-09 0.100000000000D+01 0.227700000000D+04 0.000000000000D+00
    0.200000000000D+01 0.000000000000D+00-0.977888703346D-08 0.900000000000D+02
    0.273618000000D+06 0.400000000000D+01 0.000000000000D+00 0.000000000000D+00
29 23  8 30  6  0  0.0-0.608623493463D-03-0.568434188608D-12 0.000000000000D+00
    0.610000000000D+02 0.150312500000D+02 0.403766818509D-08 0.111216531495D+01
    0.679865479469D-06 0.261116516776D-02 0.126641243696D-04 0.515372367859D+04
    0.280800000000D+06-0.111758708954D-07-0.348054021321D+00-0.111758708954D-07
    0.975463270041D+00 0.139656250000D+03 0.254470068061D+01-0.767424823467D-08
   -0.578595529398D-09 0.100000000000D+01 0.227700000000D+04 0.000000000000D+00
    0.200000000000D+01 0.000000000000D+00-0.977888703346D-08 0.610000000000D+02
    0.273618000000D+06 0.400000000000D+01 0.000000000000D+00 0.000000000000D+00
30 23  8 30  6  0  0.0-0.492240767926D-03 0.318323145621D-11 0.000000000000D+00
    0.880000000000D+02 0.363125000000D+02 0.507271129879D-08-0.175503325558D+01
    0.164099037647D-05 0.659187498968D-02 0.100173056126D-04 0.515377320671D+04
    0.280800000000D+06 0.115483999252D-06-0.251244620867D+01-0.428408384323D-07
    0.935658964626D+00 0.168593750000D+03-0.254625831239D+01-0.819676999980D-08
    0.938253367733D-09 0.100000000000D+01 0.227700000000D+04 0.000000000000D+00
    0.200000000000D+01 0.000000000000D+00 0.372529029846D-08 0.880000000000D+02
    0.273618000000D+06 0.400000000000D+01 0.000000000000D+00 0.000000000000D+00
31 23  8 30  6  0  0.0-0.222625676543D-03-0.568434188608D-12 0.000000000000D+00
    0.540000000000D+02 0.457500000000D+02 0.470091009749D-08-0.252273686305D+01
    0.201910734177D-05 0.104033801472D-01 0.102017074823D-04 0.515361629105D+04
    0.280800000000D+06-0.167638063431D-07-0.249673196398D+01-0.121071934700D-06
    0.954577002832D+00 0.181343750000D+03 0.574047686476D+00-0.794247369305D-08
    0.911823695403D-09 0.100000000000D+01 0.227700000000D+04 0.000000000000D+00
    0.200000000000D+01 0.000000000000D+00-0.130385160446D-07 0.540000000000D+02
    0.273618000000D+06 0.400000000000D+01 0.000000000000D+00 0.000000000000D+00
32 23  8 30  6  0  0.0-0.549443531781D-03-0.648014975013D-11 0.000000000000D+00
    0.760000000000D+02-0.123625000000D+03 0.410659962779D-08 0.182305163753D+01
   -0.636652112007D-05 0.696053635329D-02 0.110473483801D-04 0.515357627296D+04
    0.280800000000D+06-0.141561031342D-06 0.270822544115D+01-0.109896063805D-06
    0.960620931843D+00 0.164437500000D+03-0.222048036995D+01-0.792104422900D-08
   -0.116076263614D-09 0.100000000000D+01 0.227700000000D+04 0.000000000000D+00
    0.200000000000D+01 0.000000000000D+00 0.465661287308D-09 0.760000000000D+02
    0.278148000000D+06 0.400000000000D+01 0.000000000000D+00 0.000000000000D+00
